{"type": "FeatureCollection", "features": [ {"type": "Feature", "properties": {"norad_id": 35018, "name": "COSMOS 2251 DEB", "group": "cosmos-2251-debris", "lat": 64.20075465208329, "lon": -98.95236171321228, "alt_km": 961.9702192800278, "timestamp": "2025-12-08T03:50:07.391874+00:00", "meta": {"OBJECT_NAME": "COSMOS 2251 DEB", "OBJECT_ID": "1993-036AGF", "EPOCH": "2025-12-07T02:44:20.338656", "MEAN_MOTION": 13.67099498, "ECCENTRICITY": 0.0348459, "INCLINATION": 73.9755, "RA_OF_ASC_NODE": 119.2461, "ARG_OF_PERICENTER": 29.6581, "MEAN_ANOMALY": 332.3799, "EPHEMERIS_TYPE": 0, "CLASSIFICATION_TYPE": "U", "NORAD_CAT_ID": 35018, "ELEMENT_SET_NO": 999, "REV_AT_EPOCH": 83109, "BSTAR": 0.0011552801, "MEAN_MOTION_DOT": 1.451e-05, "MEAN_MOTION_DDOT": 0}, "tle": {"line1": "1 35018U 93036AGF 25341.11412429  .00001451  00000+0  11553-2 0  9994", "line2": "2 35018  73.9755 119.2461 0348459  29.6581 332.3799 13.67099498831096"}}, "geometry": {"type": "Point", "coordinates": [-98.95236171321228, 64.20075465208329]}}, {"type": "Feature", "properties": {"norad_id": 35020, "name": "COSMOS 2251 DEB", "group": "cosmos-2251-debris", "lat": -32.534208504311714, "lon": -162.7938033782806, "alt_km": 625.8318155256093, "timestamp": "2025-12-08T03:50:07.391884+00:00", "meta": {"OBJECT_NAME": "COSMOS 2251 DEB", "OBJECT_ID": "1993-036AGH", "EPOCH": "2025-12-07T00:05:05.050752", "MEAN_MOTION": 14.62790798, "ECCENTRICITY": 0.00909018, "INCLINATION": 74.0461, "RA_OF_ASC_NODE": 209.9349, "ARG_OF_PERICENTER": 325.3145, "MEAN_ANOMALY": 34.2114, "EPHEMERIS_TYPE": 0, "CLASSIFICATION_TYPE": "U", "NORAD_CAT_ID": 35020, "ELEMENT_SET_NO": 999, "REV_AT_EPOCH": 88154, "BSTAR": 0.00028883353, "MEAN_MOTION_DOT": 1.53e-05, "MEAN_MOTION_DDOT": 0}, "tle": {"line1": "1 35020U 93036AGH 25341.00353068  .00001530  00000+0  28883-3 0  9991", "line2": "2 35020  74.0461 209.9349 0090901 325.3145  34.2114 14.62790798881546"}}, "geometry": {"type": "Point", "coordinates": [-162.7938033782806, -32.534208504311714]}}, {"type": "Feature", "properties": {"norad_id": 35022, "name": "COSMOS 2251 DEB", "group": "cosmos-2251-debris", "lat": 47.08982661476267, "lon": -11.3588493258835, "alt_km": 703.8115541069537, "timestamp": "2025-12-08T03:50:07.391893+00:00", "meta": {"OBJECT_NAME": "COSMOS 2251 DEB", "OBJECT_ID": "1993-036AGK", "EPOCH": "2025-12-02T17:45:34.658208", "MEAN_MOTION": 14.60763876, "ECCENTRICITY": 0.00472905, "INCLINATION": 74.0262, "RA_OF_ASC_NODE": 341.0512, "ARG_OF_PERICENTER": 183.6288, "MEAN_ANOMALY": 176.4543, "EPHEMERIS_TYPE": 0, "CLASSIFICATION_TYPE": "U", "NORAD_CAT_ID": 35022, "ELEMENT_SET_NO": 999, "REV_AT_EPOCH": 58997, "BSTAR": 0.00056913021, "MEAN_MOTION_DOT": 2.791e-05, "MEAN_MOTION_DDOT": 0}, "tle": {"line1": "1 35022U 93036AGK 25336.73998447  .00002791  00000+0  56913-3 0  9998", "line2": "2 35022  74.0262 341.0512 0047290 183.6288 176.4543 14.60763876589975"}}, "geometry": {"type": "Point", "coordinates": [-11.3588493258835, 47.08982661476267]}}, {"type": "Feature", "properties": {"norad_id": 35023, "name": "COSMOS 2251 DEB", "group": "cosmos-2251-debris", "lat": 21.63196139873279, "lon": -131.66029515183357, "alt_km": 578.9372202232325, "timestamp": "2025-12-08T03:50:07.391903+00:00", "meta": {"OBJECT_NAME": "COSMOS 2251 DEB", "OBJECT_ID": "1993-036AGL", "EPOCH": "2025-12-07T02:42:30.646080", "MEAN_MOTION": 14.94828028, "ECCENTRICITY": 0.00342471, "INCLINATION": 74.0379, "RA_OF_ASC_NODE": 223.9317, "ARG_OF_PERICENTER": 302.7742, "MEAN_ANOMALY": 207.7182, "EPHEMERIS_TYPE": 0, "CLASSIFICATION_TYPE": "U", "NORAD_CAT_ID": 35023, "ELEMENT_SET_NO": 999, "REV_AT_EPOCH": 88195, "BSTAR": 0.0025053291, "MEAN_MOTION_DOT": 0.0002767, "MEAN_MOTION_DDOT": 0}, "tle": {"line1": "1 35023U 93036AGL 25341.11285470  .00027670  00000+0  25053-2 0  9995", "line2": "2 35023  74.0379 223.9317 0034247 302.7742 207.7182 14.94828028881951"}}, "geometry": {"type": "Point", "coordinates": [-131.66029515183357, 21.63196139873279]}}, {"type": "Feature", "properties": {"norad_id": 35025, "name": "COSMOS 2251 DEB", "group": "cosmos-2251-debris", "lat": 68.08504379755287, "lon": -153.83390948684706, "alt_km": 674.400815181617, "timestamp": "2025-12-08T03:50:07.391913+00:00", "meta": {"OBJECT_NAME": "COSMOS 2251 DEB", "OBJECT_ID": "1993-036AGN", "EPOCH": "2025-12-05T13:24:32.861952", "MEAN_MOTION": 14.72652613, "ECCENTRICITY": 0.00847967, "INCLINATION": 73.9386, "RA_OF_ASC_NODE": 76.9946, "ARG_OF_PERICENTER": 351.3968, "MEAN_ANOMALY": 8.5744, "EPHEMERIS_TYPE": 0, "CLASSIFICATION_TYPE": "U", "NORAD_CAT_ID": 35025, "ELEMENT_SET_NO": 999, "REV_AT_EPOCH": 88537, "BSTAR": 0.00071609127, "MEAN_MOTION_DOT": 4.797e-05, "MEAN_MOTION_DDOT": 0}, "tle": {"line1": "1 35025U 93036AGN 25339.55871368  .00004797  00000+0  71609-3 0  9993", "line2": "2 35025  73.9386  76.9946 0084796 351.3968   8.5744 14.72652613885379"}}, "geometry": {"type": "Point", "coordinates": [-153.83390948684706, 68.08504379755287]}}, {"type": "Feature", "properties": {"norad_id": 35026, "name": "COSMOS 2251 DEB", "group": "cosmos-2251-debris", "lat": -66.04021497420034, "lon": -72.61908133596668, "alt_km": 773.1339370321311, "timestamp": "2025-12-08T03:50:07.391923+00:00", "meta": {"OBJECT_NAME": "COSMOS 2251 DEB", "OBJECT_ID": "1993-036AGP", "EPOCH": "2025-12-06T07:51:48.078720", "MEAN_MOTION": 14.53617344, "ECCENTRICITY": 0.00822532, "INCLINATION": 74.0464, "RA_OF_ASC_NODE": 330.9073, "ARG_OF_PERICENTER": 86.1829, "MEAN_ANOMALY": 338.5159, "EPHEMERIS_TYPE": 0, "CLASSIFICATION_TYPE": "U", "NORAD_CAT_ID": 35026, "ELEMENT_SET_NO": 999, "REV_AT_EPOCH": 88050, "BSTAR": 0.00012460817, "MEAN_MOTION_DOT": 5.15e-06, "MEAN_MOTION_DDOT": 0}, "tle": {"line1": "1 35026U 93036AGP 25340.32763980  .00000515  00000+0  12461-3 0  9996", "line2": "2 35026  74.0464 330.9073 0082253  86.1829 338.5159 14.53617344880505"}}, "geometry": {"type": "Point", "coordinates": [-72.61908133596668, -66.04021497420034]}}, {"type": "Feature", "properties": {"norad_id": 35028, "name": "COSMOS 2251 DEB", "group": "cosmos-2251-debris", "lat": -8.020281738404666, "lon": -82.63923958000005, "alt_km": 680.9856202921756, "timestamp": "2025-12-08T03:50:07.391933+00:00", "meta": {"OBJECT_NAME": "COSMOS 2251 DEB", "OBJECT_ID": "1993-036AGR", "EPOCH": "2025-12-06T14:45:20.784960", "MEAN_MOTION": 14.56559763, "ECCENTRICITY": 0.00822588, "INCLINATION": 74.0381, "RA_OF_ASC_NODE": 282.6027, "ARG_OF_PERICENTER": 57.9846, "MEAN_ANOMALY": 116.6366, "EPHEMERIS_TYPE": 0, "CLASSIFICATION_TYPE": "U", "NORAD_CAT_ID": 35028, "ELEMENT_SET_NO": 999, "REV_AT_EPOCH": 88196, "BSTAR": 0.00020909724, "MEAN_MOTION_DOT": 9.44e-06, "MEAN_MOTION_DDOT": 0}, "tle": {"line1": "1 35028U 93036AGR 25340.61482390  .00000944  00000+0  20910-3 0  9997", "line2": "2 35028  74.0381 282.6027 0082258  57.9846 116.6366 14.56559763881966"}}, "geometry": {"type": "Point", "coordinates": [-82.63923958000005, -8.020281738404666]}}, {"type": "Feature", "properties": {"norad_id": 35031, "name": "COSMOS 2251 DEB", "group": "cosmos-2251-debris", "lat": -23.960200140627567, "lon": 95.00898035050166, "alt_km": 781.5349181380043, "timestamp": "2025-12-08T03:50:07.391943+00:00", "meta": {"OBJECT_NAME": "COSMOS 2251 DEB", "OBJECT_ID": "1993-036AGU", "EPOCH": "2025-12-06T02:28:30.271296", "MEAN_MOTION": 14.38280865, "ECCENTRICITY": 0.00185684, "INCLINATION": 74.0385, "RA_OF_ASC_NODE": 271.4894, "ARG_OF_PERICENTER": 6.3258, "MEAN_ANOMALY": 353.8127, "EPHEMERIS_TYPE": 0, "CLASSIFICATION_TYPE": "U", "NORAD_CAT_ID": 35031, "ELEMENT_SET_NO": 999, "REV_AT_EPOCH": 65188, "BSTAR": 0.00033805858, "MEAN_MOTION_DOT": 1.004e-05, "MEAN_MOTION_DDOT": 0}, "tle": {"line1": "1 35031U 93036AGU 25340.10312814  .00001004  00000+0  33806-3 0  9994", "line2": "2 35031  74.0385 271.4894 0018568   6.3258 353.8127 14.38280865651880"}}, "geometry": {"type": "Point", "coordinates": [95.00898035050166, -23.960200140627567]}}, {"type": "Feature", "properties": {"norad_id": 35032, "name": "COSMOS 2251 DEB", "group": "cosmos-2251-debris", "lat": 73.46073030168998, "lon": 118.75469839743643, "alt_km": 724.0234744472837, "timestamp": "2025-12-08T03:50:07.391954+00:00", "meta": {"OBJECT_NAME": "COSMOS 2251 DEB", "OBJECT_ID": "1993-036AGV", "EPOCH": "2025-12-06T20:57:06.952032", "MEAN_MOTION": 14.58651101, "ECCENTRICITY": 0.00687525, "INCLINATION": 73.8514, "RA_OF_ASC_NODE": 18.577, "ARG_OF_PERICENTER": 230.8542, "MEAN_ANOMALY": 308.7404, "EPHEMERIS_TYPE": 0, "CLASSIFICATION_TYPE": "U", "NORAD_CAT_ID": 35032, "ELEMENT_SET_NO": 999, "REV_AT_EPOCH": 87588, "BSTAR": 0.0016314058, "MEAN_MOTION_DOT": 7.832e-05, "MEAN_MOTION_DDOT": 0}, "tle": {"line1": "1 35032U 93036AGV 25340.87299713  .00007832  00000+0  16314-2 0  9990", "line2": "2 35032  73.8514  18.5770 0068752 230.8542 308.7404 14.58651101875887"}}, "geometry": {"type": "Point", "coordinates": [118.75469839743643, 73.46073030168998]}}, {"type": "Feature", "properties": {"norad_id": 35033, "name": "COSMOS 2251 DEB", "group": "cosmos-2251-debris", "lat": -61.43318710092399, "lon": 36.93795368258551, "alt_km": 722.3913609560068, "timestamp": "2025-12-08T03:50:07.391964+00:00", "meta": {"OBJECT_NAME": "COSMOS 2251 DEB", "OBJECT_ID": "1993-036AGW", "EPOCH": "2025-12-06T07:40:42.682944", "MEAN_MOTION": 14.50882288, "ECCENTRICITY": 0.00143551, "INCLINATION": 74.0259, "RA_OF_ASC_NODE": 188.6562, "ARG_OF_PERICENTER": 295.5184, "MEAN_ANOMALY": 64.4492, "EPHEMERIS_TYPE": 0, "CLASSIFICATION_TYPE": "U", "NORAD_CAT_ID": 35033, "ELEMENT_SET_NO": 999, "REV_AT_EPOCH": 65834, "BSTAR": 0.0011813512, "MEAN_MOTION_DOT": 4.642e-05, "MEAN_MOTION_DDOT": 0}, "tle": {"line1": "1 35033U 93036AGW 25340.31993846  .00004642  00000+0  11814-2 0  9994", "line2": "2 35033  74.0259 188.6562 0014355 295.5184  64.4492 14.50882288658342"}}, "geometry": {"type": "Point", "coordinates": [36.93795368258551, -61.43318710092399]}}]}